IRIDIUM 921             
1 24873U 97034E   24219.57563985  .00036429  00000+0  82172-3 0  9999
2 24873  86.3762 263.0946 0005544  82.0617 278.1267 15.43062495482949
IRIDIUM 26              
1 24903U 97043A   24219.55442746  .00000682  00000+0  22592-3 0  9994
2 24903  86.3923 242.6160 0002493  88.7987 271.3496 14.36465410411560
IRIDIUM 22              
1 24907U 97043E   24219.57938724  .00000630  00000+0  21306-3 0  9991
2 24907  86.3926 245.8829 0002276  92.0187 268.1270 14.35350997411637
DUMMY MASS 1            
1 24925U 97048A   24219.55337146  .00000773  00000+0  84633-4 0  9996
2 24925  86.3328 280.7162 0007178 162.2730 197.8746 14.86320146458389
DUMMY MASS 2            
1 24926U 97048B   24219.59819898  .00000770  00000+0  84797-4 0  9998
2 24926  86.3329 282.2480 0007483 174.6414 185.4892 14.86077710458174
IRIDIUM 29              
1 24944U 97051A   24219.56645061  .00000655  00000+0  21961-3 0  9993
2 24944  86.3930 275.7813 0002190  99.5172 260.6272 14.35804994408118
IRIDIUM 33              
1 24946U 97051C   24219.57103796  .00000457  00000+0  15527-3 0  9991
2 24946  86.3845 275.0276 0009032  38.8386 321.3458 14.34439369407632
IRIDIUM 28              
1 24948U 97051E   24219.60655735  .00000668  00000+0  21999-3 0  9996
2 24948  86.3933 273.4577 0002553  85.3028 274.8461 14.36760583408666
